IRIDIUM 112             
1 41925U 17003J   25242.19882189  .00000053  00000+0  11975-4 0  9997
2 41925  86.3985 209.8371 0002202  84.8124 275.3323 14.34218049451567
IRIDIUM 111             
1 41926U 17003K   25241.97683013  .00000101  00000+0  28836-4 0  9996
2 41926  86.3986 209.9939 0002333  89.9181 270.2282 14.34217925451519
IRIDIUM 113             
1 42803U 17039A   25242.09633258  .00000048  00000+0  10211-4 0  9998
2 42803  86.3915  83.8562 0001931  86.0458 274.0958 14.34217723429462
IRIDIUM 123             
1 42804U 17039B   25242.06804286  .00000045  00000+0  88344-5 0  9997
2 42804  86.3956 115.3635 0002196  94.3198 265.8249 14.34217955428228
IRIDIUM 120             
1 42805U 17039C   25242.08998397  .00000091  00000+0  25254-4 0  9998
2 42805  86.3905  83.6788 0002430  89.7554 270.3920 14.34217116429456
IRIDIUM 115             
1 42806U 17039D   25242.06771787  .00000137  00000+0  34781-4 0  9995
2 42806  86.4442  83.7772 0002480 103.9939 256.1538 14.43279628432276
IRIDIUM 118             
1 42807U 17039E   25242.09975520  .00000020  00000+0  25601-6 0  9994
2 42807  86.3954 115.3492 0001828  83.3830 276.7574 14.34217689428228
IRIDIUM 117             
1 42808U 17039F   25242.11879835  .00000278  00000+0  92179-4 0  9997
2 42808  86.3956 115.3022 0002083  92.5319 267.6115 14.34213965428254
